[
    {
        "Altitude(m)": 554015.3186759896,
        "Argument of Periapsis(deg)": 0.006622991110713501,
        "Eccentricity": 0.0,
        "Inclination(deg)": 53.0,
        "Latitude(deg)": 22.28796884449143,
        "Longitude(deg)": -157.8836074769195,
        "Mean Anomaly(deg)": 28.27339286757756,
        "RAAN(deg)": 284.990143368528,
        "Satellite Name": "Starlink Shell 1 1255",
        "Satellite Number": 1255,
        "Semi-Major Axis(m)": 6931778.249405717,
        "Time(s)": 190
    },
    {
        "Altitude(m)": 554064.9800293564,
        "Argument of Periapsis(deg)": 0.0069715695902247375,
        "Eccentricity": 0.0,
        "Inclination(deg)": 53.0,
        "Latitude(deg)": 22.76644132268765,
        "Longitude(deg)": -157.48372563484892,
        "Mean Anomaly(deg)": 28.900224071134303,
        "RAAN(deg)": 284.9896245984506,
        "Satellite Name": "Starlink Shell 1 1255",
        "Satellite Number": 1255,
        "Semi-Major Axis(m)": 6931778.249405717,
        "Time(s)": 200
    },
    {
        "Altitude(m)": 554116.4786261751,
        "Argument of Periapsis(deg)": 0.007320148069735974,
        "Eccentricity": 0.0,
        "Inclination(deg)": 53.0,
        "Latitude(deg)": 23.243659193634606,
        "Longitude(deg)": -157.08076384330846,
        "Mean Anomaly(deg)": 29.52705527469105,
        "RAAN(deg)": 284.98910582837306,
        "Satellite Name": "Starlink Shell 1 1255",
        "Satellite Number": 1255,
        "Semi-Major Axis(m)": 6931778.249405717,
        "Time(s)": 210
    },
    {
        "Altitude(m)": 554169.7689578353,
        "Argument of Periapsis(deg)": 0.007668726549247212,
        "Eccentricity": 0.0,
        "Inclination(deg)": 53.0,
        "Latitude(deg)": 23.719584515689522,
        "Longitude(deg)": -156.67463636297003,
        "Mean Anomaly(deg)": 30.153886478247696,
        "RAAN(deg)": 284.98858705829554,
        "Satellite Name": "Starlink Shell 1 1255",
        "Satellite Number": 1255,
        "Semi-Major Axis(m)": 6931778.249405717,
        "Time(s)": 220
    },
    {
        "Altitude(m)": 554224.8047848123,
        "Argument of Periapsis(deg)": 0.00801730502875845,
        "Eccentricity": 0.0,
        "Inclination(deg)": 53.0,
        "Latitude(deg)": 24.194178591386862,
        "Longitude(deg)": -156.2652562473836,
        "Mean Anomaly(deg)": 30.780717681804443,
        "RAAN(deg)": 284.98806828821813,
        "Satellite Name": "Starlink Shell 1 1255",
        "Satellite Number": 1255,
        "Semi-Major Axis(m)": 6931778.249405717,
        "Time(s)": 230
    },
    {
        "Altitude(m)": 554281.5391618432,
        "Argument of Periapsis(deg)": 0.008365883508269684,
        "Eccentricity": 0.0,
        "Inclination(deg)": 53.0,
        "Latitude(deg)": 24.66740194247452,
        "Longitude(deg)": -155.85253481971978,
        "Mean Anomaly(deg)": 31.40754888536114,
        "RAAN(deg)": 284.98754951814067,
        "Satellite Name": "Starlink Shell 1 1255",
        "Satellite Number": 1255,
        "Semi-Major Axis(m)": 6931778.249405717,
        "Time(s)": 240
    },
    {
        "Altitude(m)": 554339.9244634343,
        "Argument of Periapsis(deg)": 0.008714461987780921,
        "Eccentricity": 0.0,
        "Inclination(deg)": 53.0,
        "Latitude(deg)": 25.13921428442376,
        "Longitude(deg)": -155.4363826636118,
        "Mean Anomaly(deg)": 32.034380088917885,
        "RAAN(deg)": 284.98703074806315,
        "Satellite Name": "Starlink Shell 1 1255",
        "Satellite Number": 1255,
        "Semi-Major Axis(m)": 6931778.249405717,
        "Time(s)": 250
    },
    {
        "Altitude(m)": 554399.9124096402,
        "Argument of Periapsis(deg)": 0.009063040467292158,
        "Eccentricity": 0.0,
        "Inclination(deg)": 53.0,
        "Latitude(deg)": 25.609574500404324,
        "Longitude(deg)": -155.01670910248788,
        "Mean Anomaly(deg)": 32.66121129247463,
        "RAAN(deg)": 284.9865119779857,
        "Satellite Name": "Starlink Shell 1 1255",
        "Satellite Number": 1255,
        "Semi-Major Axis(m)": 6931778.249405717,
        "Time(s)": 260
    },
    {
        "Altitude(m)": 554461.4540921525,
        "Argument of Periapsis(deg)": 0.009411618946803396,
        "Eccentricity": 0.0,
        "Inclination(deg)": 53.0,
        "Latitude(deg)": 26.078440614728784,
        "Longitude(deg)": -154.59342168040786,
        "Mean Anomaly(deg)": 33.288042496031274,
        "RAAN(deg)": 284.9859932079082,
        "Satellite Name": "Starlink Shell 1 1255",
        "Satellite Number": 1255,
        "Semi-Major Axis(m)": 6931778.249405717,
        "Time(s)": 270
    },
    {
        "Altitude(m)": 554524.5000006612,
        "Argument of Periapsis(deg)": 0.009760197426314633,
        "Eccentricity": 0.0,
        "Inclination(deg)": 53.0,
        "Latitude(deg)": 26.545769765769673,
        "Longitude(deg)": -154.16642715743347,
        "Mean Anomaly(deg)": 33.91487369958802,
        "RAAN(deg)": 284.98547443783076,
        "Satellite Name": "Starlink Shell 1 1255",
        "Satellite Number": 1255,
        "Semi-Major Axis(m)": 6931778.249405717,
        "Time(s)": 280
    },
    {
        "Altitude(m)": 554589.0000494588,
        "Argument of Periapsis(deg)": 0.01010877590582587,
        "Eccentricity": 0.0,
        "Inclination(deg)": 53.0,
        "Latitude(deg)": 27.011518178347416,
        "Longitude(deg)": -153.73563099395352,
        "Mean Anomaly(deg)": 34.54170490314472,
        "RAAN(deg)": 284.9849556677533,
        "Satellite Name": "Starlink Shell 1 1255",
        "Satellite Number": 1255,
        "Semi-Major Axis(m)": 6931778.249405717,
        "Time(s)": 290
    },
    {
        "Altitude(m)": 554654.9036043205,
        "Argument of Periapsis(deg)": 0.010457354385337106,
        "Eccentricity": 0.0,
        "Inclination(deg)": 53.0,
        "Latitude(deg)": 27.47564113559868,
        "Longitude(deg)": -153.30093683701378,
        "Mean Anomaly(deg)": 35.16853610670147,
        "RAAN(deg)": 284.9844368976758,
        "Satellite Name": "Starlink Shell 1 1255",
        "Satellite Number": 1255,
        "Semi-Major Axis(m)": 6931778.249405717,
        "Time(s)": 300
    },
    {
        "Altitude(m)": 554722.1595095707,
        "Argument of Periapsis(deg)": 0.010805932864848343,
        "Eccentricity": 0.0,
        "Inclination(deg)": 53.0,
        "Latitude(deg)": 27.938092950334518,
        "Longitude(deg)": -152.86224752171748,
        "Mean Anomaly(deg)": 35.795367310258214,
        "RAAN(deg)": 284.9839181275983,
        "Satellite Name": "Starlink Shell 1 1255",
        "Satellite Number": 1255,
        "Semi-Major Axis(m)": 6931778.249405717,
        "Time(s)": 310
    },
    {
        "Altitude(m)": 554790.7161154159,
        "Argument of Periapsis(deg)": 0.01115451134435958,
        "Eccentricity": 0.0,
        "Inclination(deg)": 53.0,
        "Latitude(deg)": 28.398826935895173,
        "Longitude(deg)": -152.4194645621546,
        "Mean Anomaly(deg)": 36.422198513814855,
        "RAAN(deg)": 284.9833993575209,
        "Satellite Name": "Starlink Shell 1 1255",
        "Satellite Number": 1255,
        "Semi-Major Axis(m)": 6931778.249405717,
        "Time(s)": 320
    },
    {
        "Altitude(m)": 554860.5213054627,
        "Argument of Periapsis(deg)": 0.011503089823870818,
        "Eccentricity": 0.0,
        "Inclination(deg)": 53.0,
        "Latitude(deg)": 28.857795376516904,
        "Longitude(deg)": -151.97248764495353,
        "Mean Anomaly(deg)": 37.0490297173716,
        "RAAN(deg)": 284.9828805874434,
        "Satellite Name": "Starlink Shell 1 1255",
        "Satellite Number": 1255,
        "Semi-Major Axis(m)": 6931778.249405717,
        "Time(s)": 330
    },
    {
        "Altitude(m)": 554931.5225244004,
        "Argument of Periapsis(deg)": 0.011851668303382053,
        "Eccentricity": 0.0,
        "Inclination(deg)": 53.0,
        "Latitude(deg)": 29.314949497230472,
        "Longitude(deg)": -151.52121563855957,
        "Mean Anomaly(deg)": 37.6758609209283,
        "RAAN(deg)": 284.98236181736587,
        "Satellite Name": "Starlink Shell 1 1255",
        "Satellite Number": 1255,
        "Semi-Major Axis(m)": 6931778.249405717,
        "Time(s)": 340
    },
    {
        "Altitude(m)": 555003.6668058948,
        "Argument of Periapsis(deg)": 0.012200246782893292,
        "Eccentricity": 0.0,
        "Inclination(deg)": 53.0,
        "Latitude(deg)": 29.770239433306603,
        "Longitude(deg)": -151.06554609274602,
        "Mean Anomaly(deg)": 38.30269212448504,
        "RAAN(deg)": 284.98184304728846,
        "Satellite Name": "Starlink Shell 1 1255",
        "Satellite Number": 1255,
        "Semi-Major Axis(m)": 6931778.249405717,
        "Time(s)": 350
    },
    {
        "Altitude(m)": 555076.900800622,
        "Argument of Periapsis(deg)": 0.012548825262404526,
        "Eccentricity": 0.0,
        "Inclination(deg)": 53.0,
        "Latitude(deg)": 30.223614199274515,
        "Longitude(deg)": -150.60537474149626,
        "Mean Anomaly(deg)": 38.92952332804174,
        "RAAN(deg)": 284.981324277211,
        "Satellite Name": "Starlink Shell 1 1255",
        "Satellite Number": 1255,
        "Semi-Major Axis(m)": 6931778.249405717,
        "Time(s)": 360
    },
    {
        "Altitude(m)": 555151.1708044517,
        "Argument of Periapsis(deg)": 0.012897403741915765,
        "Eccentricity": 0.0,
        "Inclination(deg)": 53.0,
        "Latitude(deg)": 30.675021657544747,
        "Longitude(deg)": -150.1405965224103,
        "Mean Anomaly(deg)": 39.55635453159844,
        "RAAN(deg)": 284.9808055071335,
        "Satellite Name": "Starlink Shell 1 1255",
        "Satellite Number": 1255,
        "Semi-Major Axis(m)": 6931778.249405717,
        "Time(s)": 370
    }
]